ONEWEB-0153             
1 48044U 21025C   23059.41616763 -.00000223  00000+0 -64680-3 0  9998
2 48044  87.9080 199.6349 0001640 108.0213 252.1095 13.13470994 95392
ONEWEB-0153             
1 48044U 21025C   23059.41616763 -.00000223  00000+0 -64680-3 0  9998
2 48044  87.9080 199.6349 0001640 108.0213 252.1095 13.13470994 95404
ONEWEB-0153             
1 48044U 21025C   23059.87323247 -.00000271  00000+0 -77622-3 0  9993
2 48044  87.9081 199.5441 0001633 107.9396 252.1911 13.13471489 95451
ONEWEB-0153             
1 48044U 21025C   23060.86354099 -.00000280  00000+0 -80056-3 0  9998
2 48044  87.9079 199.3485 0001641 107.4061 252.7247 13.13470943 95583
ONEWEB-0153             
1 48044U 21025C   23061.09207284 -.00000116  00000+0 -35268-3 0  9990
2 48044  87.9079 199.3034 0001633 107.3009 252.8299 13.13471594 95621
ONEWEB-0153             
1 48044U 21025C   23061.77767176 -.00000100  00000+0 -30952-3 0  9994
2 48044  87.9080 199.1679 0001637 106.5689 253.5620 13.13471186 95707
ONEWEB-0153             
1 48044U 21025C   23062.38709269  .00000058  00000+0  12396-3 0  9993
2 48044  87.9079 199.0476 0001646 106.4643 253.6667 13.13471077 95798
ONEWEB-0153             
1 48044U 21025C   23062.46326992 -.00000008  00000+0 -57430-4 0  9996
2 48044  87.9080 199.0326 0001650 106.3177 253.8134 13.13471884 95797
ONEWEB-0153             
1 48044U 21025C   23062.84415931 -.00000016  00000+0 -77761-4 0  9998
2 48044  87.9081 198.9573 0001623 105.7160 254.4148 13.13470576 95840
